start=new Date('2021-08-22T00:00:00.000Z').valueOf();
sats=[{"CENTER_NAME":"EARTH","TLE_LINE1":"1 44920U 20001G   21234.08242599  .00000523  00000-0  53988-4 0  9990","MEAN_MOTION":"15.06391735","OBJECT_NAME":"STARLINK-1102","EPOCH":"2021-08-22T01:58:41.605536","DECAY_DATE":null,"FILE":"3101197","REF_FRAME":"TEME","PERIOD":"95.593","PERIAPSIS":"546.878","MEAN_ELEMENT_THEORY":"SGP4","RA_OF_ASC_NODE":"241.3814","TIME_SYSTEM":"UTC","INCLINATION":"53.0534","SITE":"AFETR","MEAN_ANOMALY":"310.9033","BSTAR":"0.00005398800000","NORAD_CAT_ID":"44920","OBJECT_TYPE":"PAYLOAD","ECCENTRICITY":"0.00005210","ELEMENT_SET_NO":"999","COUNTRY_CODE":"US","LAUNCH_DATE":"2020-01-07","ARG_OF_PERICENTER":"49.2001","REV_AT_EPOCH":"8955","SEMIMAJOR_AXIS":"6925.374","MEAN_MOTION_DOT":"0.00000523","APOAPSIS":"547.600","GP_ID":"183219816","TLE_LINE2":"2 44920  53.0534 241.3814 0000521  49.2001 310.9033 15.06391735 89554","RCS_SIZE":"LARGE","MEAN_MOTION_DDOT":"0.0000000000000","OBJECT_ID":"2020-001G","CLASSIFICATION_TYPE":"U","EPHEMERIS_TYPE":"0"},{"REV_AT_EPOCH":"8950","ELEMENT_SET_NO":"999","ARG_OF_PERICENTER":"83.3192","COUNTRY_CODE":"US","LAUNCH_DATE":"2020-01-07","MEAN_MOTION_DDOT":"0.0000000000000","OBJECT_ID":"2020-001H","RCS_SIZE":"LARGE","CLASSIFICATION_TYPE":"U","EPHEMERIS_TYPE":"0","APOAPSIS":"550.103","SEMIMAJOR_AXIS":"6927.824","MEAN_MOTION_DOT":"0.00000666","TLE_LINE2":"2 44921  53.0012 242.4092 0000598  83.3192 276.7864 15.05592777 89504","GP_ID":"183212608","REF_FRAME":"TEME","DECAY_DATE":null,"FILE":"3101032","MEAN_ELEMENT_THEORY":"SGP4","RA_OF_ASC_NODE":"242.4092","PERIOD":"95.643","PERIAPSIS":"549.274","CENTER_NAME":"EARTH","EPOCH":"2021-08-21T20:27:48.806208","TLE_LINE1":"1 44921U 20001H   21233.85264822  .00000666  00000-0  64817-4 0  9999","MEAN_MOTION":"15.05592777","OBJECT_NAME":"STARLINK-1103","NORAD_CAT_ID":"44921","ECCENTRICITY":"0.00005980","OBJECT_TYPE":"PAYLOAD","TIME_SYSTEM":"UTC","INCLINATION":"53.0012","MEAN_ANOMALY":"276.7864","SITE":"AFETR","BSTAR":"0.00006481700000"},{"APOAPSIS":"547.822","MEAN_MOTION_DOT":"0.00000927","SEMIMAJOR_AXIS":"6925.312","TLE_LINE2":"2 44922  53.0544 242.9216 0000932  78.4628 281.6465 15.06412072 89501","GP_ID":"183211873","OBJECT_ID":"2020-001J","MEAN_MOTION_DDOT":"0.0000000000000","RCS_SIZE":"LARGE","EPHEMERIS_TYPE":"0","CLASSIFICATION_TYPE":"U","ELEMENT_SET_NO":"999","ARG_OF_PERICENTER":"78.4628","LAUNCH_DATE":"2020-01-07","COUNTRY_CODE":"US","REV_AT_EPOCH":"8950","INCLINATION":"53.0544","TIME_SYSTEM":"UTC","BSTAR":"0.00008107500000","SITE":"AFETR","MEAN_ANOMALY":"281.6465","NORAD_CAT_ID":"44922","ECCENTRICITY":"0.00009320","OBJECT_TYPE":"PAYLOAD","CENTER_NAME":"EARTH","EPOCH":"2021-08-21T17:45:03.037536","TLE_LINE1":"1 44922U 20001J   21233.73961849  .00000927  00000-0  81075-4 0  9995","MEAN_MOTION":"15.06412072","OBJECT_NAME":"STARLINK-1104","REF_FRAME":"TEME","FILE":"3101032","DECAY_DATE":null,"RA_OF_ASC_NODE":"242.9216","MEAN_ELEMENT_THEORY":"SGP4","PERIAPSIS":"546.531","PERIOD":"95.591"},{"NORAD_CAT_ID":"44923","OBJECT_TYPE":"PAYLOAD","ECCENTRICITY":"0.00006290","TIME_SYSTEM":"UTC","INCLINATION":"53.0544","MEAN_ANOMALY":"321.1033","SITE":"AFETR","BSTAR":"0.00004548800000","DECAY_DATE":null,"FILE":"3101198","REF_FRAME":"TEME","PERIOD":"95.592","PERIAPSIS":"546.758","MEAN_ELEMENT_THEORY":"SGP4","RA_OF_ASC_NODE":"241.6164","CENTER_NAME":"EARTH","OBJECT_NAME":"STARLINK-1106","TLE_LINE1":"1 44923U 20001K   21234.03080701  .00000397  00000-0  45488-4 0  9998","MEAN_MOTION":"15.06406543","EPOCH":"2021-08-22T00:44:21.725664","RCS_SIZE":"LARGE","MEAN_MOTION_DDOT":"0.0000000000000","OBJECT_ID":"2020-001K","CLASSIFICATION_TYPE":"U","EPHEMERIS_TYPE":"0","SEMIMAJOR_AXIS":"6925.329","MEAN_MOTION_DOT":"0.00000397","APOAPSIS":"547.629","GP_ID":"183220166","TLE_LINE2":"2 44923  53.0544 241.6164 0000629  39.0001 321.1033 15.06406543 89542","REV_AT_EPOCH":"8954","ELEMENT_SET_NO":"999","COUNTRY_CODE":"US","LAUNCH_DATE":"2020-01-07","ARG_OF_PERICENTER":"39.0001"},{"LAUNCH_DATE":"2020-01-07","COUNTRY_CODE":"US","ARG_OF_PERICENTER":"92.9301","ELEMENT_SET_NO":"999","REV_AT_EPOCH":"8950","GP_ID":"183212371","TLE_LINE2":"2 44924  53.0534 242.8545 0000938  92.9301 267.1795 15.06383563 89508","MEAN_MOTION_DOT":"0.00000210","SEMIMAJOR_AXIS":"6925.399","APOAPSIS":"547.914","EPHEMERIS_TYPE":"0","CLASSIFICATION_TYPE":"U","RCS_SIZE":"LARGE","OBJECT_ID":"2020-001L","MEAN_MOTION_DDOT":"0.0000000000000","MEAN_MOTION":"15.06383563","TLE_LINE1":"1 44924U 20001L   21233.75437990  .00000210  00000-0  32977-4 0  9996","OBJECT_NAME":"STARLINK-1111","EPOCH":"2021-08-21T18:06:18.423360","CENTER_NAME":"EARTH","PERIAPSIS":"546.614","PERIOD":"95.593","RA_OF_ASC_NODE":"242.8545","MEAN_ELEMENT_THEORY":"SGP4","FILE":"3101032","DECAY_DATE":null,"REF_FRAME":"TEME","BSTAR":"0.00003297700000","MEAN_ANOMALY":"267.1795","SITE":"AFETR","INCLINATION":"53.0534","TIME_SYSTEM":"UTC","OBJECT_TYPE":"PAYLOAD","ECCENTRICITY":"0.00009380","NORAD_CAT_ID":"44924"},{"CENTER_NAME":"EARTH","TLE_LINE1":"1 44925U 20001M   21233.37102936  .00000216  00000-0  33401-4 0  9993","EPOCH":"2021-08-21T08:54:16.936704","MEAN_MOTION":"15.06395900","OBJECT_NAME":"STARLINK-1112","DECAY_DATE":null,"FILE":"3100831","REF_FRAME":"TEME","PERIOD":"95.592","PERIAPSIS":"546.613","MEAN_ELEMENT_THEORY":"SGP4","RA_OF_ASC_NODE":"244.5748","TIME_SYSTEM":"UTC","INCLINATION":"53.0530","MEAN_ANOMALY":"310.3965","SITE":"AFETR","BSTAR":"0.00003340100000","NORAD_CAT_ID":"44925","OBJECT_TYPE":"PAYLOAD","ECCENTRICITY":"0.00008860","ELEMENT_SET_NO":"999","COUNTRY_CODE":"US","LAUNCH_DATE":"2020-01-07","ARG_OF_PERICENTER":"49.7102","REV_AT_EPOCH":"8944","SEMIMAJOR_AXIS":"6925.361","MEAN_MOTION_DOT":"0.00000216","APOAPSIS":"547.840","GP_ID":"183184994","TLE_LINE2":"2 44925  53.0530 244.5748 0000886  49.7102 310.3965 15.06395900 89441","RCS_SIZE":"LARGE","MEAN_MOTION_DDOT":"0.0000000000000","OBJECT_ID":"2020-001M","CLASSIFICATION_TYPE":"U","EPHEMERIS_TYPE":"0"},{"ARG_OF_PERICENTER":"45.9595","LAUNCH_DATE":"2020-01-07","COUNTRY_CODE":"US","ELEMENT_SET_NO":"999","REV_AT_EPOCH":"9023","TLE_LINE2":"2 44926  53.0004 242.8783 0000406  45.9595 314.1426 15.05592669 90233","GP_ID":"183211373","APOAPSIS":"549.970","MEAN_MOTION_DOT":"0.00000373","SEMIMAJOR_AXIS":"6927.824","EPHEMERIS_TYPE":"0","CLASSIFICATION_TYPE":"U","OBJECT_ID":"2020-001N","MEAN_MOTION_DDOT":"0.0000000000000","RCS_SIZE":"LARGE","MEAN_MOTION":"15.05592669","TLE_LINE1":"1 44926U 20001N   21233.74974508  .00000373  00000-0  44757-4 0  9997","OBJECT_NAME":"STARLINK-1113","EPOCH":"2021-08-21T17:59:37.974912","CENTER_NAME":"EARTH","RA_OF_ASC_NODE":"242.8783","MEAN_ELEMENT_THEORY":"SGP4","PERIAPSIS":"549.408","PERIOD":"95.643","REF_FRAME":"TEME","DECAY_DATE":null,"FILE":"3101032","BSTAR":"0.00004475700000","SITE":"AFETR","MEAN_ANOMALY":"314.1426","INCLINATION":"53.0004","TIME_SYSTEM":"UTC","ECCENTRICITY":"0.00004060","OBJECT_TYPE":"PAYLOAD","NORAD_CAT_ID":"44926"},{"REV_AT_EPOCH":"8955","ELEMENT_SET_NO":"999","LAUNCH_DATE":"2020-01-07","COUNTRY_CODE":"US","ARG_OF_PERICENTER":"42.1149","RCS_SIZE":"LARGE","OBJECT_ID":"2020-001P","MEAN_MOTION_DDOT":"0.0000000000000","EPHEMERIS_TYPE":"0","CLASSIFICATION_TYPE":"U","MEAN_MOTION_DOT":"0.00000739","SEMIMAJOR_AXIS":"6925.320","APOAPSIS":"547.736","GP_ID":"183220167","TLE_LINE2":"2 44927  53.0528 241.5486 0000795  42.1149 317.9901 15.06409327 89557","FILE":"3101198","DECAY_DATE":null,"REF_FRAME":"TEME","PERIAPSIS":"546.634","PERIOD":"95.592","RA_OF_ASC_NODE":"241.5486","MEAN_ELEMENT_THEORY":"SGP4","CENTER_NAME":"EARTH","OBJECT_NAME":"STARLINK-1114","TLE_LINE1":"1 44927U 20001P   21234.04554045  .00000739  00000-0  68483-4 0  9990","MEAN_MOTION":"15.06409327","EPOCH":"2021-08-22T01:05:34.694880","NORAD_CAT_ID":"44927","OBJECT_TYPE":"PAYLOAD","ECCENTRICITY":"0.00007950","INCLINATION":"53.0528","TIME_SYSTEM":"UTC","BSTAR":"0.00006848300000","SITE":"AFETR","MEAN_ANOMALY":"317.9901"},{"BSTAR":"0.00001696900000","MEAN_ANOMALY":"320.2717","SITE":"AFETR","INCLINATION":"53.0542","TIME_SYSTEM":"UTC","ECCENTRICITY":"0.00005610","OBJECT_TYPE":"PAYLOAD","NORAD_CAT_ID":"44928","MEAN_MOTION":"15.06385027","TLE_LINE1":"1 44928U 20001Q   21234.04186585 -.00000028  00000-0  16969-4 0  9995","OBJECT_NAME":"STARLINK-1119","EPOCH":"2021-08-22T01:00:17.209440","CENTER_NAME":"EARTH","RA_OF_ASC_NODE":"241.5652","MEAN_ELEMENT_THEORY":"SGP4","PERIAPSIS":"546.871","PERIOD":"95.593","REF_FRAME":"TEME","FILE":"3101218","DECAY_DATE":null,"TLE_LINE2":"2 44928  53.0542 241.5652 0000561  39.8313 320.2717 15.06385027 89558","GP_ID":"183220182","APOAPSIS":"547.648","MEAN_MOTION_DOT":"-0.00000028","SEMIMAJOR_AXIS":"6925.394","EPHEMERIS_TYPE":"0","CLASSIFICATION_TYPE":"U","OBJECT_ID":"2020-001Q","MEAN_MOTION_DDOT":"0.0000000000000","RCS_SIZE":"LARGE","ARG_OF_PERICENTER":"39.8313","LAUNCH_DATE":"2020-01-07","COUNTRY_CODE":"US","ELEMENT_SET_NO":"999","REV_AT_EPOCH":"8955"},{"APOAPSIS":"547.607","MEAN_MOTION_DOT":"0.00002186","SEMIMAJOR_AXIS":"6925.327","TLE_LINE2":"2 44929  53.0528 242.2260 0000599  76.2341 283.8715 15.06407034 89525","GP_ID":"183212609","OBJECT_ID":"2020-001R","MEAN_MOTION_DDOT":"0.0000000000000","RCS_SIZE":"LARGE","EPHEMERIS_TYPE":"0","CLASSIFICATION_TYPE":"U","ELEMENT_SET_NO":"999","ARG_OF_PERICENTER":"76.2341","LAUNCH_DATE":"2020-01-07","COUNTRY_CODE":"US","REV_AT_EPOCH":"8952","INCLINATION":"53.0528","TIME_SYSTEM":"UTC","BSTAR":"0.00016556000000","MEAN_ANOMALY":"283.8715","SITE":"AFETR","NORAD_CAT_ID":"44929","ECCENTRICITY":"0.00005990","OBJECT_TYPE":"PAYLOAD","CENTER_NAME":"EARTH","EPOCH":"2021-08-21T21:27:59.122656","TLE_LINE1":"1 44929U 20001R   21233.89443429  .00002186  00000-0  16556-3 0  9998","MEAN_MOTION":"15.06407034","OBJECT_NAME":"STARLINK-1121","REF_FRAME":"TEME","DECAY_DATE":null,"FILE":"3101032","RA_OF_ASC_NODE":"242.2260","MEAN_ELEMENT_THEORY":"SGP4","PERIAPSIS":"546.777","PERIOD":"95.592"}];
